25676,GLOBALSTAR M045,1999,117.36,-1.0,-,51.99,Inactive,0,LEO,Kazakhstan,Globalstar,Unknown,Unknown,Soyuz,1 25676U 99019A   23316.37302072 -.00000028  00000+0  58030-3 0  9992,2 25676  51.9949 166.3562 0001667 102.1662  69.5722 12.27019260122086,12.2701926,0.0001667,LEO
25677,GLOBALSTAR M019,1999,118.63,-1.0,-,51.99,Inactive,0,LEO,Kazakhstan,Globalstar,Unknown,Unknown,Soyuz,1 25677U 99019B   23315.85099387 -.00000205  00000+0 -11987-2 0  9994,2 25677  51.9881 257.1766 0000317 191.3197 184.8307 12.13846832114305,12.13846832,3.17e-05,LEO
25678,GLOBALSTAR M044,1999,120.99,-1.0,-,51.99,Inactive,0,LEO,Kazakhstan,Globalstar,Unknown,Unknown,Soyuz,1 25678U 99019C   23316.43849833 -.00000056  00000+0  38495-3 0  9996,2 25678  51.9940 134.0004 0006335   5.4929   4.0015 11.90227012101913,11.90227012,0.0006335,LEO
25679,GLOBALSTAR M042,1999,117.83,-1.0,-,52.0,Inactive,0,LEO,Kazakhstan,Globalstar,Unknown,Unknown,Soyuz,1 25679U 99019D   23316.24988897 -.00000056  00000+0  34113-3 0  9993,2 25679  52.0015 256.5528 0002689 166.6087   5.8803 12.22050913114056,12.22050913,0.0002689,LEO
25770,GLOBALSTAR M025,1999,128.28,-1.0,-,51.98,Inactive,0,MEO,USA,Globalstar,Unknown,Unknown,Delta,1 25770U 99031A   23315.60019763 -.00000075  00000+0 -21721-3 0  9998,2 25770  51.9820  71.1780 0000917 206.0494 166.6656 11.22547033416177,11.22547033,9.17e-05,MEO
25771,GLOBALSTAR M049,1999,129.48,-1.0,-,51.99,Inactive,0,MEO,USA,Globalstar,Unknown,Unknown,Delta,1 25771U 99031B   23315.65336211 -.00000131  00000+0 -23000-2 0  9998,2 25771  51.9873  76.4913 0003712 115.1813 244.9369 11.12102611 52505,11.12102611,0.0003712,MEO
25772,GLOBALSTAR M047,1999,127.22,-1.0,-,51.98,Inactive,0,LEO,USA,Globalstar,Unknown,Unknown,Delta,1 25772U 99031C   23315.78632109 -.00000058  00000+0  33416-3 0  9998,2 25772  51.9799 128.8984 0015852 345.2120  14.8221 11.31917282405049,11.31917282,0.0015852,LEO
25773,GLOBALSTAR M052,1999,129.14,-1.0,-,51.98,Inactive,0,MEO,USA,Globalstar,Unknown,Unknown,Delta,1 25773U 99031D   23315.91528038 -.00000043  00000+0  75633-3 0  9990,2 25773  51.9846 192.7776 0001642 311.7473 134.2248 11.15047148413449,11.15047148,0.0001642,MEO
